{
  "type": "FeatureCollection",
  "features": [
    {
      "type": "Feature",
      "properties": {
        "norad_id": 35025,
        "name": "COSMOS 2251 DEB",
        "group": "cosmos-2251-debris",
        "lat": 72.64238518139429,
        "lon": 115.26645080744328,
        "alt_km": 678.3223861304459,
        "timestamp": "2025-12-20T07:33:51.208823+00:00",
        "meta_object_name": "COSMOS 2251 DEB",
        "meta_object_id": "1993-036AGN",
        "meta_epoch": "2025-12-19T21:24:22.874688",
        "meta_mean_motion": 14.72741051,
        "meta_eccentricity": 0.00854998,
        "meta_inclination": 73.9383,
        "meta_ra_of_asc_node": 48.9151,
        "meta_arg_of_pericenter": 320.2115,
        "meta_mean_anomaly": 39.2806,
        "meta_ephemeris_type": 0,
        "meta_classification_type": "U",
        "meta_norad_cat_id": 35025,
        "meta_element_set_no": 999,
        "meta_rev_at_epoch": 88748,
        "meta_bstar": 0.00026573659,
        "meta_mean_motion_dot": 1.76e-05,
        "meta_mean_motion_ddot": 0,
        "tle_line1": "1 35025U 93036AGN 25353.89193142  .00001760  00000+0  26574-3 0  9991",
        "tle_line2": "2 35025  73.9383  48.9151 0085499 320.2115  39.2806 14.72741051887482"
      },
      "geometry": {
        "type": "Point",
        "coordinates": [
          115.26645080744328,
          72.64238518139429
        ]
      }
    },
    {
      "type": "Feature",
      "properties": {
        "norad_id": 35026,
        "name": "COSMOS 2251 DEB",
        "group": "cosmos-2251-debris",
        "lat": 25.709970990978228,
        "lon": 116.58628464531176,
        "alt_km": 719.4778267993961,
        "timestamp": "2025-12-20T07:33:51.208834+00:00",
        "meta_object_name": "COSMOS 2251 DEB",
        "meta_object_id": "1993-036AGP",
        "meta_epoch": "2025-12-18T03:45:00.139104",
        "meta_mean_motion": 14.53626797,
        "meta_eccentricity": 0.0082422,
        "meta_inclination": 74.047,
        "meta_ra_of_asc_node": 308.5764,
        "meta_arg_of_pericenter": 60.5026,
        "meta_mean_anomaly": 318.4835,
        "meta_ephemeris_type": 0,
        "meta_classification_type": "U",
        "meta_norad_cat_id": 35026,
        "meta_element_set_no": 999,
        "meta_rev_at_epoch": 88222,
        "meta_bstar": 6.097601e-05,
        "meta_mean_motion_dot": 2.37e-06,
        "meta_mean_motion_ddot": 0,
        "tle_line1": "1 35026U 93036AGP 25352.15625161  .00000237  00000+0  60976-4 0  9994",
        "tle_line2": "2 35026  74.0470 308.5764 0082422  60.5026 318.4835 14.53626797882224"
      },
      "geometry": {
        "type": "Point",
        "coordinates": [
          116.58628464531176,
          25.709970990978228
        ]
      }
    },
    {
      "type": "Feature",
      "properties": {
        "norad_id": 35028,
        "name": "COSMOS 2251 DEB",
        "group": "cosmos-2251-debris",
        "lat": -15.097182342592737,
        "lon": -107.82170726178035,
        "alt_km": 666.1699803106758,
        "timestamp": "2025-12-20T07:33:51.208844+00:00",
        "meta_object_name": "COSMOS 2251 DEB",
        "meta_object_id": "1993-036AGR",
        "meta_epoch": "2025-12-18T03:11:52.081152",
        "meta_mean_motion": 14.56575396,
        "meta_eccentricity": 0.00826724,
        "meta_inclination": 74.0383,
        "meta_ra_of_asc_node": 260.7455,
        "meta_arg_of_pericenter": 32.9493,
        "meta_mean_anomaly": 35.4382,
        "meta_ephemeris_type": 0,
        "meta_classification_type": "U",
        "meta_norad_cat_id": 35028,
        "meta_element_set_no": 999,
        "meta_rev_at_epoch": 88364,
        "meta_bstar": 8.3392474e-05,
        "meta_mean_motion_dot": 3.58e-06,
        "meta_mean_motion_ddot": 0,
        "tle_line1": "1 35028U 93036AGR 25352.13324168  .00000358  00000+0  83392-4 0  9998",
        "tle_line2": "2 35028  74.0383 260.7455 0082672  32.9493  35.4382 14.56575396883644"
      },
      "geometry": {
        "type": "Point",
        "coordinates": [
          -107.82170726178035,
          -15.097182342592737
        ]
      }
    },
    {
      "type": "Feature",
      "properties": {
        "norad_id": 35031,
        "name": "COSMOS 2251 DEB",
        "group": "cosmos-2251-debris",
        "lat": 57.56402115534868,
        "lon": 38.54077949628834,
        "alt_km": 768.8593271435375,
        "timestamp": "2025-12-20T07:33:51.208854+00:00",
        "meta_object_name": "COSMOS 2251 DEB",
        "meta_object_id": "1993-036AGU",
        "meta_epoch": "2025-12-17T23:55:41.225088",
        "meta_mean_motion": 14.38299529,
        "meta_eccentricity": 0.00190755,
        "meta_inclination": 74.0382,
        "meta_ra_of_asc_node": 249.5774,
        "meta_arg_of_pericenter": 342.0186,
        "meta_mean_anomaly": 18.0291,
        "meta_ephemeris_type": 0,
        "meta_classification_type": "U",
        "meta_norad_cat_id": 35031,
        "meta_element_set_no": 999,
        "meta_rev_at_epoch": 65359,
        "meta_bstar": 0.00013785455,
        "meta_mean_motion_dot": 3.94e-06,
        "meta_mean_motion_ddot": 0,
        "tle_line1": "1 35031U 93036AGU 25351.99700492  .00000394  00000+0  13785-3 0  9991",
        "tle_line2": "2 35031  74.0382 249.5774 0019075 342.0186  18.0291 14.38299529653593"
      },
      "geometry": {
        "type": "Point",
        "coordinates": [
          38.54077949628834,
          57.56402115534868
        ]
      }
    },
    {
      "type": "Feature",
      "properties": {
        "norad_id": 35032,
        "name": "COSMOS 2251 DEB",
        "group": "cosmos-2251-debris",
        "lat": -1.2286255722510468,
        "lon": 173.04261116813456,
        "alt_km": 655.177742412192,
        "timestamp": "2025-12-20T07:33:51.208864+00:00",
        "meta_object_name": "COSMOS 2251 DEB",
        "meta_object_id": "1993-036AGV",
        "meta_epoch": "2025-12-19T18:23:09.888288",
        "meta_mean_motion": 14.58776682,
        "meta_eccentricity": 0.00678914,
        "meta_inclination": 73.8514,
        "meta_ra_of_asc_node": 353.7437,
        "meta_arg_of_pericenter": 203.8802,
        "meta_mean_anomaly": 335.1362,
        "meta_ephemeris_type": 0,
        "meta_classification_type": "U",
        "meta_norad_cat_id": 35032,
        "meta_element_set_no": 999,
        "meta_rev_at_epoch": 87776,
        "meta_bstar": 0.00054981647,
        "meta_mean_motion_dot": 2.62e-05,
        "meta_mean_motion_ddot": 0,
        "tle_line1": "1 35032U 93036AGV 25353.76608667  .00002620  00000+0  54982-3 0  9998",
        "tle_line2": "2 35032  73.8514 353.7437 0067891 203.8802 335.1362 14.58776682877761"
      },
      "geometry": {
        "type": "Point",
        "coordinates": [
          173.04261116813456,
          -1.2286255722510468
        ]
      }
    },
    {
      "type": "Feature",
      "properties": {
        "norad_id": 35033,
        "name": "COSMOS 2251 DEB",
        "group": "cosmos-2251-debris",
        "lat": -7.551499563900545,
        "lon": 160.14573616703044,
        "alt_km": 724.9251884095393,
        "timestamp": "2025-12-20T07:33:51.208874+00:00",
        "meta_object_name": "COSMOS 2251 DEB",
        "meta_object_id": "1993-036AGW",
        "meta_epoch": "2025-12-19T05:07:27.625152",
        "meta_mean_motion": 14.50959586,
        "meta_eccentricity": 0.001448,
        "meta_inclination": 74.0251,
        "meta_ra_of_asc_node": 164.3945,
        "meta_arg_of_pericenter": 270.8601,
        "meta_mean_anomaly": 89.0901,
        "meta_ephemeris_type": 0,
        "meta_classification_type": "U",
        "meta_norad_cat_id": 35033,
        "meta_element_set_no": 999,
        "meta_rev_at_epoch": 66021,
        "meta_bstar": 0.00048139,
        "meta_mean_motion_dot": 1.877e-05,
        "meta_mean_motion_ddot": 0,
        "tle_line1": "1 35033U 93036AGW 25353.21351418  .00001877  00000+0  48139-3 0  9998",
        "tle_line2": "2 35033  74.0251 164.3945 0014480 270.8601  89.0901 14.50959586660212"
      },
      "geometry": {
        "type": "Point",
        "coordinates": [
          160.14573616703044,
          -7.551499563900545
        ]
      }
    },
    {
      "type": "Feature",
      "properties": {
        "norad_id": 35038,
        "name": "COSMOS 2251 DEB",
        "group": "cosmos-2251-debris",
        "lat": -24.338807924939168,
        "lon": 21.57590314137276,
        "alt_km": 746.4108246740461,
        "timestamp": "2025-12-20T07:33:51.208884+00:00",
        "meta_object_name": "COSMOS 2251 DEB",
        "meta_object_id": "1993-036AHB",
        "meta_epoch": "2025-12-16T02:43:57.942048",
        "meta_mean_motion": 14.25166694,
        "meta_eccentricity": 0.01140711,
        "meta_inclination": 74.1077,
        "meta_ra_of_asc_node": 36.5236,
        "meta_arg_of_pericenter": 19.3791,
        "meta_mean_anomaly": 9.3469,
        "meta_ephemeris_type": 0,
        "meta_classification_type": "U",
        "meta_norad_cat_id": 35038,
        "meta_element_set_no": 999,
        "meta_rev_at_epoch": 85617,
        "meta_bstar": 0.00096319549,
        "meta_mean_motion_dot": 2.397e-05,
        "meta_mean_motion_ddot": 0,
        "tle_line1": "1 35038U 93036AHB 25350.11386507  .00002397  00000+0  96320-3 0  9999",
        "tle_line2": "2 35038  74.1077  36.5236 0114071  19.3791   9.3469 14.25166694856178"
      },
      "geometry": {
        "type": "Point",
        "coordinates": [
          21.57590314137276,
          -24.338807924939168
        ]
      }
    }
  ]
}